PROPCUBE 3              
1 40973U 15058K   26068.73202292  .00005546  00000+0  46586-3 0  9992
2 40973  64.7688 203.0958 0123527  99.6156 261.8939 14.93528956 99948
STARLINK-3726           
1 52122U 22029AL  26068.32460875 -.00001278  00000+0 -62235-4 0  9995
2 52122  53.2169  80.7606 0001334  88.5591 271.5554 15.08829473220734
